ISS OBJECT XW           
1 66910U 98067XW  26047.57861836  .00107473  00000+0  11387-2 0  9998
2 66910  51.6264 172.6794 0002673 345.1330  14.9585 15.63280536 11879
ISS OBJECT XX           
1 66911U 98067XX  26047.58188470  .00171451  00000+0  15661-2 0  9992
2 66911  51.6245 171.9469 0004501 334.7332  25.3443 15.66761182 11871
ISS OBJECT XY           
1 66912U 98067XY  26047.59275738  .00078325  00000+0  94754-3 0  9995
2 66912  51.6285 173.5323 0000861 347.6773  12.4199 15.59991807 11854
ISS OBJECT XZ           
1 67683U 98067XZ  26047.59295067  .00039552  00000+0  69362-3 0  9994
2 67683  51.6310 176.5311 0010453 117.2289 242.9766 15.50106152  1514
GXIBA-1                 
1 67684U 98067YA  26047.58835915  .00072591  00000+0  12178-2 0  9998
2 67684  51.6308 176.5014 0012114 110.6315 249.5975 15.51069447  1516
CORAL                   
1 67685U 98067YB  26047.59205580  .00045290  00000+0  78715-3 0  9995
2 67685  51.6312 176.5256 0012410 112.8726 247.3574 15.50273681  1516
ISS OBJECT YC           
1 67686U 98067YC  26047.59123450  .00052403  00000+0  90420-3 0  9992
2 67686  51.6314 176.5206 0007795  86.2899 273.8981 15.50464751  1515
LEOPARD                 
1 67687U 98067YD  26047.59242646  .00042089  00000+0  73552-3 0  9998
2 67687  51.6315 176.5282 0007881  88.7578 271.4314 15.50202460  1430
ISS OBJECT YE           
1 67688U 98067YE  26047.59154167  .00047501  00000+0  82337-3 0  9994
2 67688  51.6318 176.5235 0007776  87.0684 273.1194 15.50378681  1439
CREW DRAGON 12          
1 67796U 26031A   26047.53756625  .00009593  00000+0  18404-3 0  9990
2 67796  51.6319 176.9116 0011020 104.8338 255.3872 15.48645386   477
