CCSDS_OMM_VERS = 2.0
CREATION_DATE  = 
ORIGINATOR     = 

OBJECT_NAME    = ISS OBJECT XW
OBJECT_ID      = 1998-067XW
CENTER_NAME    = EARTH
REF_FRAME      = TEME
TIME_SYSTEM    = UTC
MEAN_ELEMENT_THEORY = SGP/SGP4

EPOCH          = 2026-02-16T13:53:12.626304
MEAN_MOTION    = 15.63280536
ECCENTRICITY   = .00026734
INCLINATION    = 51.6264
RA_OF_ASC_NODE = 172.6794
ARG_OF_PERICENTER = 345.1330
MEAN_ANOMALY   = 14.9585

EPHEMERIS_TYPE = 0
CLASSIFICATION_TYPE = U
NORAD_CAT_ID   = 66910
ELEMENT_SET_NO = 999
REV_AT_EPOCH   = 1187
BSTAR          = .11387133E-2
MEAN_MOTION_DOT = .107473E-2
MEAN_MOTION_DDOT = 0

CCSDS_OMM_VERS = 2.0
CREATION_DATE  = 
ORIGINATOR     = 

OBJECT_NAME    = ISS OBJECT XX
OBJECT_ID      = 1998-067XX
CENTER_NAME    = EARTH
REF_FRAME      = TEME
TIME_SYSTEM    = UTC
MEAN_ELEMENT_THEORY = SGP/SGP4

EPOCH          = 2026-02-16T13:57:54.838080
MEAN_MOTION    = 15.66761182
ECCENTRICITY   = .00045011
INCLINATION    = 51.6245
RA_OF_ASC_NODE = 171.9469
ARG_OF_PERICENTER = 334.7332
MEAN_ANOMALY   = 25.3443

EPHEMERIS_TYPE = 0
CLASSIFICATION_TYPE = U
NORAD_CAT_ID   = 66911
ELEMENT_SET_NO = 999
REV_AT_EPOCH   = 1187
BSTAR          = .15661002E-2
MEAN_MOTION_DOT = .171451E-2
MEAN_MOTION_DDOT = 0

CCSDS_OMM_VERS = 2.0
CREATION_DATE  = 
ORIGINATOR     = 

OBJECT_NAME    = ISS OBJECT XY
OBJECT_ID      = 1998-067XY
CENTER_NAME    = EARTH
REF_FRAME      = TEME
TIME_SYSTEM    = UTC
MEAN_ELEMENT_THEORY = SGP/SGP4

EPOCH          = 2026-02-16T14:13:34.237632
MEAN_MOTION    = 15.59991807
ECCENTRICITY   = .00008614
INCLINATION    = 51.6285
RA_OF_ASC_NODE = 173.5323
ARG_OF_PERICENTER = 347.6773
MEAN_ANOMALY   = 12.4199

EPHEMERIS_TYPE = 0
CLASSIFICATION_TYPE = U
NORAD_CAT_ID   = 66912
ELEMENT_SET_NO = 999
REV_AT_EPOCH   = 1185
BSTAR          = .94753606E-3
MEAN_MOTION_DOT = .78325E-3
MEAN_MOTION_DDOT = 0

CCSDS_OMM_VERS = 2.0
CREATION_DATE  = 
ORIGINATOR     = 

OBJECT_NAME    = ISS OBJECT XZ
OBJECT_ID      = 1998-067XZ
CENTER_NAME    = EARTH
REF_FRAME      = TEME
TIME_SYSTEM    = UTC
MEAN_ELEMENT_THEORY = SGP/SGP4

EPOCH          = 2026-02-16T14:13:50.937888
MEAN_MOTION    = 15.50106152
ECCENTRICITY   = .00104539
INCLINATION    = 51.6310
RA_OF_ASC_NODE = 176.5311
ARG_OF_PERICENTER = 117.2289
MEAN_ANOMALY   = 242.9766

EPHEMERIS_TYPE = 0
CLASSIFICATION_TYPE = U
NORAD_CAT_ID   = 67683
ELEMENT_SET_NO = 999
REV_AT_EPOCH   = 151
BSTAR          = .69361625E-3
MEAN_MOTION_DOT = .39552E-3
MEAN_MOTION_DDOT = 0

CCSDS_OMM_VERS = 2.0
CREATION_DATE  = 
ORIGINATOR     = 

OBJECT_NAME    = GXIBA-1
OBJECT_ID      = 1998-067YA
CENTER_NAME    = EARTH
REF_FRAME      = TEME
TIME_SYSTEM    = UTC
MEAN_ELEMENT_THEORY = SGP/SGP4

EPOCH          = 2026-02-16T14:07:14.230560
MEAN_MOTION    = 15.51069447
ECCENTRICITY   = .00121148
INCLINATION    = 51.6308
RA_OF_ASC_NODE = 176.5014
ARG_OF_PERICENTER = 110.6315
MEAN_ANOMALY   = 249.5975

EPHEMERIS_TYPE = 0
CLASSIFICATION_TYPE = U
NORAD_CAT_ID   = 67684
ELEMENT_SET_NO = 999
REV_AT_EPOCH   = 151
BSTAR          = .121779E-2
MEAN_MOTION_DOT = .72591E-3
MEAN_MOTION_DDOT = 0

CCSDS_OMM_VERS = 2.0
CREATION_DATE  = 
ORIGINATOR     = 

OBJECT_NAME    = CORAL
OBJECT_ID      = 1998-067YB
CENTER_NAME    = EARTH
REF_FRAME      = TEME
TIME_SYSTEM    = UTC
MEAN_ELEMENT_THEORY = SGP/SGP4

EPOCH          = 2026-02-16T14:12:33.621120
MEAN_MOTION    = 15.50273681
ECCENTRICITY   = .00124104
INCLINATION    = 51.6312
RA_OF_ASC_NODE = 176.5256
ARG_OF_PERICENTER = 112.8726
MEAN_ANOMALY   = 247.3574

EPHEMERIS_TYPE = 0
CLASSIFICATION_TYPE = U
NORAD_CAT_ID   = 67685
ELEMENT_SET_NO = 999
REV_AT_EPOCH   = 151
BSTAR          = .78714875E-3
MEAN_MOTION_DOT = .4529E-3
MEAN_MOTION_DDOT = 0

CCSDS_OMM_VERS = 2.0
CREATION_DATE  = 
ORIGINATOR     = 

OBJECT_NAME    = ISS OBJECT YC
OBJECT_ID      = 1998-067YC
CENTER_NAME    = EARTH
REF_FRAME      = TEME
TIME_SYSTEM    = UTC
MEAN_ELEMENT_THEORY = SGP/SGP4

EPOCH          = 2026-02-16T14:11:22.660800
MEAN_MOTION    = 15.50464751
ECCENTRICITY   = .00077959
INCLINATION    = 51.6314
RA_OF_ASC_NODE = 176.5206
ARG_OF_PERICENTER = 86.2899
MEAN_ANOMALY   = 273.8981

EPHEMERIS_TYPE = 0
CLASSIFICATION_TYPE = U
NORAD_CAT_ID   = 67686
ELEMENT_SET_NO = 999
REV_AT_EPOCH   = 151
BSTAR          = .90419849E-3
MEAN_MOTION_DOT = .52403E-3
MEAN_MOTION_DDOT = 0

CCSDS_OMM_VERS = 2.0
CREATION_DATE  = 
ORIGINATOR     = 

OBJECT_NAME    = LEOPARD
OBJECT_ID      = 1998-067YD
CENTER_NAME    = EARTH
REF_FRAME      = TEME
TIME_SYSTEM    = UTC
MEAN_ELEMENT_THEORY = SGP/SGP4

EPOCH          = 2026-02-16T14:13:05.646144
MEAN_MOTION    = 15.50202460
ECCENTRICITY   = .00078817
INCLINATION    = 51.6315
RA_OF_ASC_NODE = 176.5282
ARG_OF_PERICENTER = 88.7578
MEAN_ANOMALY   = 271.4314

EPHEMERIS_TYPE = 0
CLASSIFICATION_TYPE = U
NORAD_CAT_ID   = 67687
ELEMENT_SET_NO = 999
REV_AT_EPOCH   = 143
BSTAR          = .73551608E-3
MEAN_MOTION_DOT = .42089E-3
MEAN_MOTION_DDOT = 0

CCSDS_OMM_VERS = 2.0
CREATION_DATE  = 
ORIGINATOR     = 

OBJECT_NAME    = ISS OBJECT YE
OBJECT_ID      = 1998-067YE
CENTER_NAME    = EARTH
REF_FRAME      = TEME
TIME_SYSTEM    = UTC
MEAN_ELEMENT_THEORY = SGP/SGP4

EPOCH          = 2026-02-16T14:11:49.200288
MEAN_MOTION    = 15.50378681
ECCENTRICITY   = .00077765
INCLINATION    = 51.6318
RA_OF_ASC_NODE = 176.5235
ARG_OF_PERICENTER = 87.0684
MEAN_ANOMALY   = 273.1194

EPHEMERIS_TYPE = 0
CLASSIFICATION_TYPE = U
NORAD_CAT_ID   = 67688
ELEMENT_SET_NO = 999
REV_AT_EPOCH   = 143
BSTAR          = .82336552E-3
MEAN_MOTION_DOT = .47501E-3
MEAN_MOTION_DDOT = 0

CCSDS_OMM_VERS = 2.0
CREATION_DATE  = 
ORIGINATOR     = 

OBJECT_NAME    = CREW DRAGON 12
OBJECT_ID      = 2026-031A
CENTER_NAME    = EARTH
REF_FRAME      = TEME
TIME_SYSTEM    = UTC
MEAN_ELEMENT_THEORY = SGP/SGP4

EPOCH          = 2026-02-16T12:54:05.724000
MEAN_MOTION    = 15.48645386
ECCENTRICITY   = .00110201
INCLINATION    = 51.6319
RA_OF_ASC_NODE = 176.9116
ARG_OF_PERICENTER = 104.8338
MEAN_ANOMALY   = 255.3872

EPHEMERIS_TYPE = 0
CLASSIFICATION_TYPE = U
NORAD_CAT_ID   = 67796
ELEMENT_SET_NO = 999
REV_AT_EPOCH   = 47
BSTAR          = .18403846E-3
MEAN_MOTION_DOT = .9593E-4
MEAN_MOTION_DDOT = 0

